#dP2023  3  7 12  0  0.00000000      96 __u+U ITR00 EXT  IAC
## 2252 216000.00000000   900.00000000 60010 0.5000000000000
+  118   C06C07C08C09C10C11C12C13C14C16C19C20C21C22C23C24C25
+        C26C27C28C29C30C32C33C34C35C36C37C38C39C40C41C42C43
+        C44C45C46E02E03E04E05E07E08E09E10E11E12E14E15E18E19
+        E21E24E25E26E27E30E31E33E34E36G01G02G03G04G05G06G07
+        G08G09G10G11G12G13G14G15G16G17G18G19G20G21G22G23G24
+        G25G26G27G28G29G30G31G32J02J03J04R01R02R03R04R05R07
+        R08R09R11R12R13R14R15R16R17R18R19R20R21R22R24R25  0
++        11 10 11  9  9  9  8  9  9  7  7  9  8  9  8  6  7
++         8  9  9  7  9  8  6  8 10  8 10  8 11  7 10  9  9
++         7  8  9  6  7  7  8  7  7  6 10  6  7  8  7  8  6
++         7  7  6  7  6  6  6  7  8  7  6  8  6  7  8  7  7
++         7  6  8  6  7  8  7  7  6  7  6  6  7  7  7  6  6
++         8  7  7  6  7  7  5  6  8  7  9  7  7  8  7  8  8
++         7  6  7  6  8  6  7  9  8  9  9  9  6  6  9  7  0
%c M  cc GPS ccc cccc cccc cccc cccc ccccc ccccc ccccc ccccc
%c cc cc ccc ccc cccc cccc cccc cccc ccccc ccccc ccccc ccccc
%f  0.0000000  0.000000000  0.00000000000  0.000000000000000
%f  0.0000000  0.000000000  0.00000000000  0.000000000000000
%i    0    0    0    0      0      0      0      0         0
%i    0    0    0    0      0      0      0      0         0
/* IAC                                ULTRA-RAPID PREDICTION
/* S/V CLOCKS ARE ALIGNED TO GNSS TIME                      
/* G:C1WC2W R:C1PC2P E:C1XC5X C:C2IC6I J:C1CC2S             
/* PCV:IGS20_2247 OL/AL:FES2004  NONE     YN ORB:CoN CLK:CoN
*  2023 03 08  8 30  0.00000000
PC06  -2229.365008  33382.229188 -25481.306265   -194.771316
PC07 -14617.350098  26652.106638  29201.316909     10.751968
PC08 -16101.935848  38383.683066  -7272.062519    520.878370
PC09   4614.395051  37391.371997 -17968.434710    905.357465
PC10  -5843.087989  27577.959011  31562.217718     -4.352544
PC11  10916.195678  23886.775251   9520.791001    693.988226
PC12  -4699.230004  16963.217533  21691.318475    493.741126
PC13 -11180.517937  38831.348361 -12324.291691    224.528222
PC14   5979.240593  14836.914732 -22847.723388    564.020233
PC16  -3377.025044  31898.137816 -26992.381331    144.264797
PC19 -16141.391994 -10914.815399  19998.904455   -895.323865
PC20   3330.763633 -16203.911402  22496.689180    690.180499
PC21 -22328.029702  12062.645685 -11558.120844   -908.938168
PC22 -27269.730102    913.372609   5793.292562   -596.808186
PC23  16919.396799    242.139053  22186.133123   -885.331543
PC24  -6695.464334  26824.858078   3876.657385   -321.702478
PC25   8476.300055  18337.879546  19247.858121     84.009778
PC26 -15614.015766  19904.014170 -11838.507458    -88.833442
PC27  12069.119662 -10391.282124 -22935.444263    107.355049
PC28  20993.875037   6771.576444 -17088.035221     78.532684
PC29 -18602.030944 -20807.219603    -13.381457     90.618632
PC30  -4085.732850 -22015.011282 -16679.774401      0.938863
PC32  22283.483277 -12245.157423  11536.033971   -604.645454
PC33  16168.477816  10850.153072 -19986.488063   -870.971771
PC34   5161.474434  22405.542904  15783.194179    121.801338
PC35 -21539.987647  -7043.557888  16302.965323    668.271909
PC36  -7583.097397 -19073.730807 -18886.109209   -578.611846
PC37  16488.962033 -18402.543485  12951.658310   -806.628410
PC38 -20017.800053  37157.234337   1605.232241     63.543386
PC39  -7512.414683  27465.146022 -30986.215395     -2.085531
PC40 -20203.266770  20103.366572  30975.143087    -16.975889
PC41  27167.226810   -646.499303  -6304.591655   -697.332051
PC42  -4755.454309  16288.353811 -22100.986127   -798.552950
PC43  18133.253715  21177.134602    782.134297     10.697555
PC44 -11967.411301  10694.578855  22815.685916     37.559484
PC45 -16933.250311    297.922432 -22190.092048    -69.460377
PC46   5498.571058 -26770.214280  -5546.727274    -38.360131
PE02  -1430.808699  20126.790571  21655.056725     25.051315
PE03  10842.637493  19109.055171 -19839.129063   -657.040355
PE04 -25974.912083 -13444.249382   4568.530758    -73.723631
PE05 -11066.803482  13659.302816 -23808.278544    -88.525560
PE07  26245.065248   -205.841355  13702.826894    -28.261737
PE08  25938.887239  13455.883896  -4748.725161    -47.625456
PE09 -26284.571157     35.419266 -13595.630644   -861.273304
PE10 -16482.942746  -7439.780330  23430.649400   -517.523308
PE11 -15427.529882   5001.422324  24754.164541   1163.203888
PE12 -14952.204620 -17603.815954  18527.721147   -449.536010
PE14  -4115.116398 -20596.254804 -19551.775983    162.292293
PE15  14828.151933  17881.179329 -18329.467822     -5.970562
PE18  20763.900777  18783.901561   7855.705119   -308.372507
PE19  -7993.456804 -18960.521376  21289.903381  -3061.289826
PE21  18070.784308 -21887.948865  -8391.729988   -516.266111
PE24 -25390.009304  10352.292374 -11207.930307  -1153.334300
PE25 -18318.829678  21809.896997   8076.604913   -600.881453
PE26   6798.997335 -23910.923977 -16067.885223     39.190550
PE27  25339.239737 -11111.305860  10493.501068   -529.536159
PE30  17136.705105   6745.554228  23153.049695  -1299.873854
PE31 -17617.753983  -6085.191020 -22996.578337   -517.965143
PE33  -5379.095312 -29098.168106   1036.611333   -449.928934
PE34   5525.850780  29055.269622  -1191.551625    -33.782087
PE36  -7148.595774  23319.154417  16765.613562    -23.000656
PG01 -13380.628184   7595.738271  21271.169495    204.956223
PG02  11574.451560 -12542.948667 -19795.121374   -615.895938
PG03 -22897.000524  12333.216277   4955.808886   -353.293414
PG04 -20245.870438   3161.507259 -16950.156974    -11.908714
PG05  19821.755188    166.576667 -17903.852372   -118.646311
PG06   5428.830814  25511.575787  -4659.820212    579.485846
PG07  -7846.851174  20772.129245 -13758.957752    227.371374
PG08 -25291.218402  -5520.926442   6743.853714   -111.908328
PG09 -10556.439902  11892.304344 -21352.530060   -204.798123
PG10   3468.727620 -18307.018884  18979.977981    -27.678085
PG11  12185.692171  17001.349923 -16377.453643   -124.090164
PG12  23827.406993  -9487.238306   6424.918289   -348.930625
PG13  22997.592412  13423.493190   1285.905519    487.200796
PG14  -6724.300306  19189.778019  17022.983976     -9.557653
PG15  25663.046233   2551.823338   6462.660243     19.672976
PG16 -18415.510703  -4453.292432 -19099.088774   -516.595392
PG17   3372.606557  17305.753403  20264.637570    704.267097
PG18   5562.937191 -23466.759081 -10960.521397   -170.547208
PG19  13697.122017  18487.297183  13277.846413    287.183698
PG20  12608.212434   9203.697802 -21442.633260    446.338543
PG21 -15905.181224  -2172.445099  21841.565852    154.277267
PG22 -16172.408779 -18088.446133  11436.844398    441.098159
PG23  14289.628756 -19776.004103  10320.890527      9.498277
PG24  15276.917347  -3237.454789  21127.354562   -103.062384
PG25  20066.589560 -17024.066969  -2557.622693    425.959383
PG26  -7717.157226 -14024.272412 -21280.862521    241.905834
PG27 -22983.580047 -13255.091743  -3935.303348     85.874114
PG28  -5408.380114 -25871.526840  -2679.935508     36.949095
PG29  14406.140999  -8139.072641 -20843.369833   -589.807644
PG30    435.179674  26274.025958  -2608.892823   -527.745756
PG31  -7242.392285 -24218.834615  -7554.472428   -211.084502
PG32  -7527.236600 -17607.741962  18660.449506   -417.272343
PJ02 -30356.239177  29237.398552   7146.980871     -1.127028
PJ03 -25726.025770  23709.884995  28606.534767      0.754054
PJ04 -32935.290406  22355.948407  -8926.233206     94.169941
PR01   -748.775058 -10999.929265  23008.349106     24.349202
PR02 -19196.997387  -7367.266629  15187.755003    -23.193256
PR03 -25499.254281    501.252912  -1283.741248     73.765935
PR04 -17601.800063   7630.082865 -16784.742800    178.549253
PR05   -195.240574  10759.959870 -23110.256874    108.936606
PR07  25368.790919   -932.532376   2259.386305     51.308079
PR08  17330.277416  -7932.844338  16999.348335    -69.776219
PR09   7069.461651  10119.659855  22324.760927    107.949355
PR11  14710.352371 -19778.197986   6596.920111    -14.945057
PR12   5711.079493 -21666.086773 -12155.198744     25.498304
PR13  -5562.349858 -11704.583122 -21990.676571    -32.765518
PR14 -14857.490296   7005.563769 -19504.667894     24.396286
PR15 -14627.887115  20177.344404  -5424.315915     90.598588
PR16  -5807.370226  21779.484429  11915.322903     12.105144
PR17 -13938.572207  -5647.032030  20602.586829    610.835818
PR18  -5762.982077  10483.532837  22535.319495     70.375011
PR19   3919.377837  21026.223556  13897.154647   -224.497687
PR20  13715.272112  20510.836553  -6362.387787    -88.945187
PR21  13310.824199   4149.934212 -21364.350032   -378.726250
PR22   5900.513662 -11309.231179 -22066.351359     73.991008
PR24 -14664.827446 -19678.812726   6960.428652    152.099671
PR25  13985.975326   6490.229484 -20319.904707     57.112066
EOF
